ICEYE-X72               
1 68504U 26067CS  26195.83537335  .00111260  00000+0  97771-2 0  9997
2 68504  97.7627 153.8099 0001700 172.0492 188.0757 14.95982705 15856
ICEYE-X78               
1 68995U 26100R   26195.71039750  .00000409  00000+0  46020-4 0  9999
2 68995  97.7335  92.6520 0003614  56.3074 303.8489 14.91811558 10803
ICEYE-X82               
1 68996U 26100S   26195.66513239  .00001397  00000+0  14539-3 0  9999
2 68996  97.7329  92.5524 0005726  65.1986 294.9828 14.91422922 10794
