{"fetched_at":"2026-07-15T06:36:08.770Z","source":"https://celestrak.org/NORAD/elements/gp.php?NAME=ICEYE&FORMAT=JSON","constellation":"iceye","records":[{"OBJECT_NAME":"ICEYE-X72","OBJECT_ID":"2026-067CS","EPOCH":"2026-07-14T20:02:56.257440","CLASSIFICATION_TYPE":"U","MEAN_MOTION":14.95982705,"ECCENTRICITY":0.00017008,"INCLINATION":97.7627,"RA_OF_ASC_NODE":153.8099,"ARG_OF_PERICENTER":172.0492,"MEAN_ANOMALY":188.0757,"EPHEMERIS_TYPE":0,"NORAD_CAT_ID":68504,"ELEMENT_SET_NO":999,"REV_AT_EPOCH":1585,"BSTAR":0.0097771333,"MEAN_MOTION_DOT":0.0011126,"MEAN_MOTION_DDOT":0},{"OBJECT_NAME":"ICEYE-X78","OBJECT_ID":"2026-100R","EPOCH":"2026-07-14T17:02:58.344000","CLASSIFICATION_TYPE":"U","MEAN_MOTION":14.91811558,"ECCENTRICITY":0.00036149,"INCLINATION":97.7335,"RA_OF_ASC_NODE":92.652,"ARG_OF_PERICENTER":56.3074,"MEAN_ANOMALY":303.8489,"EPHEMERIS_TYPE":0,"NORAD_CAT_ID":68995,"ELEMENT_SET_NO":999,"REV_AT_EPOCH":1080,"BSTAR":0.000046020028,"MEAN_MOTION_DOT":0.00000409,"MEAN_MOTION_DDOT":0},{"OBJECT_NAME":"ICEYE-X82","OBJECT_ID":"2026-100S","EPOCH":"2026-07-14T15:57:47.438496","CLASSIFICATION_TYPE":"U","MEAN_MOTION":14.91422922,"ECCENTRICITY":0.00057267,"INCLINATION":97.7329,"RA_OF_ASC_NODE":92.5524,"ARG_OF_PERICENTER":65.1986,"MEAN_ANOMALY":294.9828,"EPHEMERIS_TYPE":0,"NORAD_CAT_ID":68996,"ELEMENT_SET_NO":999,"REV_AT_EPOCH":1079,"BSTAR":0.00014538725,"MEAN_MOTION_DOT":0.00001397,"MEAN_MOTION_DDOT":0}]}
